[
  {
    "OBJECT_NAME": "STARLINK-3898",
    "OBJECT_ID": "22049H",
    "EPOCH": "2025-11-11T04:29:43.921824",
    "MEAN_MOTION": 15.0886743,
    "ECCENTRICITY": 0.0001324,
    "INCLINATION": 53.2155,
    "RA_OF_ASC_NODE": 241.1008,
    "ARG_OF_PERICENTER": 88.1108,
    "MEAN_ANOMALY": 272.0036,
    "EPHEMERIS_TYPE": 0,
    "CLASSIFICATION_TYPE": "U",
    "NORAD_CAT_ID": 52458,
    "ELEMENT_SET_NO": 999,
    "REV_AT_EPOCH": 19422,
    "BSTAR": 0.00089557,
    "MEAN_MOTION_DOT": 0.00014004,
    "MEAN_MOTION_DDOT": 0.0,
    "TLE_LINE1": "1 52458U 22049H   25315.18731391  .00014004  00000+0  89557-3 0  9995",
    "TLE_LINE2": "2 52458  53.2155 241.1008 0001324  88.1108 272.0036 15.08867430194229",
    "COMMENT": "Grouped by shell and plane from TLE"
  },
  {
    "OBJECT_NAME": "STARLINK-4143",
    "OBJECT_ID": "22076AV",
    "EPOCH": "2025-11-11T04:40:56.379936",
    "MEAN_MOTION": 15.08843524,
    "ECCENTRICITY": 0.0001535,
    "INCLINATION": 53.2181,
    "RA_OF_ASC_NODE": 246.0627,
    "ARG_OF_PERICENTER": 88.5083,
    "MEAN_ANOMALY": 271.6085,
    "EPHEMERIS_TYPE": 0,
    "CLASSIFICATION_TYPE": "U",
    "NORAD_CAT_ID": 53029,
    "ELEMENT_SET_NO": 999,
    "REV_AT_EPOCH": 18523,
    "BSTAR": 0.00014128,
    "MEAN_MOTION_DOT": 1.961e-05,
    "MEAN_MOTION_DDOT": 0.0,
    "TLE_LINE1": "1 53029U 22076AV  25315.19509699  .00001961  00000+0  14128-3 0  9995",
    "TLE_LINE2": "2 53029  53.2181 246.0627 0001535  88.5083 271.6085 15.08843524185232",
    "COMMENT": "Grouped by shell and plane from TLE"
  },
  {
    "OBJECT_NAME": "STARLINK-4137",
    "OBJECT_ID": "22076AX",
    "EPOCH": "2025-11-11T04:25:02.682048",
    "MEAN_MOTION": 15.08836411,
    "ECCENTRICITY": 0.0001637,
    "INCLINATION": 53.2187,
    "RA_OF_ASC_NODE": 246.1136,
    "ARG_OF_PERICENTER": 87.2313,
    "MEAN_ANOMALY": 272.8866,
    "EPHEMERIS_TYPE": 0,
    "CLASSIFICATION_TYPE": "U",
    "NORAD_CAT_ID": 53031,
    "ELEMENT_SET_NO": 999,
    "REV_AT_EPOCH": 18523,
    "BSTAR": 0.00014849,
    "MEAN_MOTION_DOT": 2.076e-05,
    "MEAN_MOTION_DDOT": 0.0,
    "TLE_LINE1": "1 53031U 22076AX  25315.18405882  .00002076  00000+0  14849-3 0  9994",
    "TLE_LINE2": "2 53031  53.2187 246.1136 0001637  87.2313 272.8866 15.08836411185239",
    "COMMENT": "Grouped by shell and plane from TLE"
  },
  {
    "OBJECT_NAME": "STARLINK-4167",
    "OBJECT_ID": "22076AZ",
    "EPOCH": "2025-11-11T04:30:20.127744",
    "MEAN_MOTION": 15.08844954,
    "ECCENTRICITY": 0.000135,
    "INCLINATION": 53.2175,
    "RA_OF_ASC_NODE": 246.0958,
    "ARG_OF_PERICENTER": 98.9025,
    "MEAN_ANOMALY": 261.212,
    "EPHEMERIS_TYPE": 0,
    "CLASSIFICATION_TYPE": "U",
    "NORAD_CAT_ID": 53033,
    "ELEMENT_SET_NO": 999,
    "REV_AT_EPOCH": 18523,
    "BSTAR": 0.00014777,
    "MEAN_MOTION_DOT": 2.065e-05,
    "MEAN_MOTION_DDOT": 0.0,
    "TLE_LINE1": "1 53033U 22076AZ  25315.18773296  .00002065  00000+0  14777-3 0  9991",
    "TLE_LINE2": "2 53033  53.2175 246.0958 0001350  98.9025 261.2120 15.08844954185236",
    "COMMENT": "Grouped by shell and plane from TLE"
  },
  {
    "OBJECT_NAME": "STARLINK-4151",
    "OBJECT_ID": "22076BA",
    "EPOCH": "2025-11-11T04:42:19.399104",
    "MEAN_MOTION": 15.0882562,
    "ECCENTRICITY": 0.0001612,
    "INCLINATION": 53.217,
    "RA_OF_ASC_NODE": 246.1067,
    "ARG_OF_PERICENTER": 83.2136,
    "MEAN_ANOMALY": 276.904,
    "EPHEMERIS_TYPE": 0,
    "CLASSIFICATION_TYPE": "U",
    "NORAD_CAT_ID": 53034,
    "ELEMENT_SET_NO": 999,
    "REV_AT_EPOCH": 18523,
    "BSTAR": 0.0,
    "MEAN_MOTION_DOT": -3.539e-05,
    "MEAN_MOTION_DDOT": 0.0,
    "TLE_LINE1": "1 53034U 22076BA  25315.19605786 -.00003539  00000+0 -20444-3 0  9998",
    "TLE_LINE2": "2 53034  53.2170 246.1067 0001612  83.2136 276.9040 15.08825620185238",
    "COMMENT": "Grouped by shell and plane from TLE"
  },
  {
    "OBJECT_NAME": "STARLINK-4157",
    "OBJECT_ID": "22076BB",
    "EPOCH": "2025-11-11T04:19:44.459616",
    "MEAN_MOTION": 15.08843624,
    "ECCENTRICITY": 0.0001488,
    "INCLINATION": 53.2187,
    "RA_OF_ASC_NODE": 246.1316,
    "ARG_OF_PERICENTER": 90.3555,
    "MEAN_ANOMALY": 269.7608,
    "EPHEMERIS_TYPE": 0,
    "CLASSIFICATION_TYPE": "U",
    "NORAD_CAT_ID": 53035,
    "ELEMENT_SET_NO": 999,
    "REV_AT_EPOCH": 18523,
    "BSTAR": 0.00015649,
    "MEAN_MOTION_DOT": 2.204e-05,
    "MEAN_MOTION_DDOT": 0.0,
    "TLE_LINE1": "1 53035U 22076BB  25315.18037569  .00002204  00000+0  15649-3 0  9993",
    "TLE_LINE2": "2 53035  53.2187 246.1316 0001488  90.3555 269.7608 15.08843624185233",
    "COMMENT": "Grouped by shell and plane from TLE"
  },
  {
    "OBJECT_NAME": "STARLINK-4155",
    "OBJECT_ID": "22076BC",
    "EPOCH": "2025-11-11T05:49:49.596960",
    "MEAN_MOTION": 15.08844296,
    "ECCENTRICITY": 0.0001289,
    "INCLINATION": 53.2185,
    "RA_OF_ASC_NODE": 245.8486,
    "ARG_OF_PERICENTER": 96.2928,
    "MEAN_ANOMALY": 263.8211,
    "EPHEMERIS_TYPE": 0,
    "CLASSIFICATION_TYPE": "U",
    "NORAD_CAT_ID": 53036,
    "ELEMENT_SET_NO": 999,
    "REV_AT_EPOCH": 18524,
    "BSTAR": 0.00012643,
    "MEAN_MOTION_DOT": 1.725e-05,
    "MEAN_MOTION_DDOT": 0.0,
    "TLE_LINE1": "1 53036U 22076BC  25315.24293515  .00001725  00000+0  12643-3 0  9994",
    "TLE_LINE2": "2 53036  53.2185 245.8486 0001289  96.2928 263.8211 15.08844296185246",
    "COMMENT": "Grouped by shell and plane from TLE"
  },
  {
    "OBJECT_NAME": "STARLINK-4153",
    "OBJECT_ID": "22076BD",
    "EPOCH": "2025-11-11T02:33:45.290880",
    "MEAN_MOTION": 15.08839621,
    "ECCENTRICITY": 0.0001341,
    "INCLINATION": 53.2173,
    "RA_OF_ASC_NODE": 246.4597,
    "ARG_OF_PERICENTER": 72.4127,
    "MEAN_ANOMALY": 287.7011,
    "EPHEMERIS_TYPE": 0,
    "CLASSIFICATION_TYPE": "U",
    "NORAD_CAT_ID": 53037,
    "ELEMENT_SET_NO": 999,
    "REV_AT_EPOCH": 18522,
    "BSTAR": 0.00032806999999999997,
    "MEAN_MOTION_DOT": 4.937e-05,
    "MEAN_MOTION_DDOT": 0.0,
    "TLE_LINE1": "1 53037U 22076BD  25315.10677420  .00004937  00000+0  32807-3 0  9993",
    "TLE_LINE2": "2 53037  53.2173 246.4597 0001341  72.4127 287.7011 15.08839621185227",
    "COMMENT": "Grouped by shell and plane from TLE"
  },
  {
    "OBJECT_NAME": "STARLINK-4156",
    "OBJECT_ID": "22076BE",
    "EPOCH": "2025-11-11T05:39:13.032000",
    "MEAN_MOTION": 15.08854167,
    "ECCENTRICITY": 0.0001267,
    "INCLINATION": 53.2175,
    "RA_OF_ASC_NODE": 245.8804,
    "ARG_OF_PERICENTER": 89.1396,
    "MEAN_ANOMALY": 270.9741,
    "EPHEMERIS_TYPE": 0,
    "CLASSIFICATION_TYPE": "U",
    "NORAD_CAT_ID": 53038,
    "ELEMENT_SET_NO": 999,
    "REV_AT_EPOCH": 18524,
    "BSTAR": 0.0,
    "MEAN_MOTION_DOT": -9.41e-06,
    "MEAN_MOTION_DDOT": 0.0,
    "TLE_LINE1": "1 53038U 22076BE  25315.23556750 -.00000941  00000+0 -41000-4 0  9999",
    "TLE_LINE2": "2 53038  53.2175 245.8804 0001267  89.1396 270.9741 15.08854167185242",
    "COMMENT": "Grouped by shell and plane from TLE"
  },
  {
    "OBJECT_NAME": "STARLINK-4503",
    "OBJECT_ID": "22101B",
    "EPOCH": "2025-11-11T05:02:07.282464",
    "MEAN_MOTION": 15.08857528,
    "ECCENTRICITY": 0.0001317,
    "INCLINATION": 53.2169,
    "RA_OF_ASC_NODE": 245.9971,
    "ARG_OF_PERICENTER": 87.0578,
    "MEAN_ANOMALY": 273.0565,
    "EPHEMERIS_TYPE": 0,
    "CLASSIFICATION_TYPE": "U",
    "NORAD_CAT_ID": 53528,
    "ELEMENT_SET_NO": 999,
    "REV_AT_EPOCH": 17827,
    "BSTAR": 0.00021029000000000002,
    "MEAN_MOTION_DOT": 3.062e-05,
    "MEAN_MOTION_DDOT": 0.0,
    "TLE_LINE1": "1 53528U 22101B   25315.20980651  .00003062  00000+0  21029-3 0  9993",
    "TLE_LINE2": "2 53528  53.2169 245.9971 0001317  87.0578 273.0565 15.08857528178277",
    "COMMENT": "Grouped by shell and plane from TLE"
  },
  {
    "OBJECT_NAME": "STARLINK-4478",
    "OBJECT_ID": "22101C",
    "EPOCH": "2025-11-11T06:26:54.871296",
    "MEAN_MOTION": 15.08853944,
    "ECCENTRICITY": 0.0001266,
    "INCLINATION": 53.2171,
    "RA_OF_ASC_NODE": 245.7411,
    "ARG_OF_PERICENTER": 87.5558,
    "MEAN_ANOMALY": 272.5579,
    "EPHEMERIS_TYPE": 0,
    "CLASSIFICATION_TYPE": "U",
    "NORAD_CAT_ID": 53529,
    "ELEMENT_SET_NO": 999,
    "REV_AT_EPOCH": 17828,
    "BSTAR": 0.00020216,
    "MEAN_MOTION_DOT": 2.932e-05,
    "MEAN_MOTION_DDOT": 0.0,
    "TLE_LINE1": "1 53529U 22101C   25315.26869064  .00002932  00000+0  20216-3 0  9996",
    "TLE_LINE2": "2 53529  53.2171 245.7411 0001266  87.5558 272.5579 15.08853944178282",
    "COMMENT": "Grouped by shell and plane from TLE"
  },
  {
    "OBJECT_NAME": "STARLINK-4482",
    "OBJECT_ID": "22101D",
    "EPOCH": "2025-11-11T05:12:45.844992",
    "MEAN_MOTION": 15.08847521,
    "ECCENTRICITY": 0.0001323,
    "INCLINATION": 53.2167,
    "RA_OF_ASC_NODE": 246.1861,
    "ARG_OF_PERICENTER": 108.2378,
    "MEAN_ANOMALY": 251.8758,
    "EPHEMERIS_TYPE": 0,
    "CLASSIFICATION_TYPE": "U",
    "NORAD_CAT_ID": 53530,
    "ELEMENT_SET_NO": 999,
    "REV_AT_EPOCH": 17827,
    "BSTAR": 9.773500000000001e-05,
    "MEAN_MOTION_DOT": 1.268e-05,
    "MEAN_MOTION_DDOT": 0.0,
    "TLE_LINE1": "1 53530U 22101D   25315.21719728  .00001268  00000+0  97735-4 0  9996",
    "TLE_LINE2": "2 53530  53.2167 246.1861 0001323 108.2378 251.8758 15.08847521178270",
    "COMMENT": "Grouped by shell and plane from TLE"
  },
  {
    "OBJECT_NAME": "STARLINK-4487",
    "OBJECT_ID": "22101E",
    "EPOCH": "2025-11-11T04:46:16.146336",
    "MEAN_MOTION": 15.08828946,
    "ECCENTRICITY": 0.0001224,
    "INCLINATION": 53.2172,
    "RA_OF_ASC_NODE": 246.0438,
    "ARG_OF_PERICENTER": 82.3483,
    "MEAN_ANOMALY": 277.7648,
    "EPHEMERIS_TYPE": 0,
    "CLASSIFICATION_TYPE": "U",
    "NORAD_CAT_ID": 53531,
    "ELEMENT_SET_NO": 999,
    "REV_AT_EPOCH": 17827,
    "BSTAR": 0.00010237000000000001,
    "MEAN_MOTION_DOT": 1.341e-05,
    "MEAN_MOTION_DDOT": 0.0,
    "TLE_LINE1": "1 53531U 22101E   25315.19879799  .00001341  00000+0  10237-3 0  9992",
    "TLE_LINE2": "2 53531  53.2172 246.0438 0001224  82.3483 277.7648 15.08828946178270",
    "COMMENT": "Grouped by shell and plane from TLE"
  }
]